H1 CPF 01  gfz 2022 04 26 00  6161 terrasarx 
H2 0702601  6201 31698    2022 04 26 00 59 42 2022 05 01 00 00 42   120 1 1  0 0 0
H9
10 0 59697  29502.000000  0    5371592.199  -3760296.596  -2122812.576
10 0 59697  29622.000000  0    4994393.839  -3713916.590  -2961983.812
10 0 59697  29742.000000  0    4531597.512  -3595461.252  -3749168.914
10 0 59697  29862.000000  0    3992605.628  -3405644.085  -4470619.350
10 0 59697  29982.000000  0    3388106.642  -3146593.550  -5113769.549
10 0 59697  30102.000000  0    2729855.866  -2821828.576  -5667449.162
10 0 59697  30222.000000  0    2030442.554  -2436208.349  -6122066.820
10 0 59697  30342.000000  0    1303047.815  -1995857.451  -6469766.575
10 0 59697  30462.000000  0     561195.694  -1508065.139  -6704554.002
10 0 59697  30582.000000  0    -181495.958   -981163.129  -6822388.612
10 0 59697  30702.000000  0    -911560.471   -424384.556  -6821244.972
10 0 59697  30822.000000  0   -1615920.568    152294.379  -6701143.512
10 0 59697  30942.000000  0   -2282117.424    738328.842  -6464149.505
10 0 59697  31062.000000  0   -2898525.876   1322793.010  -6114341.235
10 0 59697  31182.000000  0   -3454554.006   1894578.683  -5657747.833
10 0 59697  31302.000000  0   -3940825.991   2442602.529  -5102257.025
10 0 59697  31422.000000  0   -4349344.754   2956019.406  -4457490.207
10 0 59697  31542.000000  0   -4673629.248   3424436.717  -3734645.524
10 0 59697  31662.000000  0   -4908824.140   3838125.999  -2946313.146
10 0 59697  31782.000000  0   -5051780.231   4188227.761  -2106262.221
10 0 59697  31902.000000  0   -5101102.027   4466943.447  -1229203.175
10 0 59697  32022.000000  0   -5057161.895   4667710.842   -330528.975
10 0 59697  32142.000000  0   -4922078.247   4785357.683    573960.224
10 0 59697  32262.000000  0   -4699657.940   4816228.540   1468343.211
10 0 59697  32382.000000  0   -4395304.017   4758280.435   2336867.801
10 0 59697  32502.000000  0   -4015890.053   4611146.105   3164237.283
10 0 59697  32622.000000  0   -3569605.891   4376163.074   3935886.730
10 0 59697  32742.000000  0   -3065779.539   4056367.961   4638243.919
10 0 59697  32862.000000  0   -2514679.255   3656456.778   5258970.566
10 0 59697  32982.000000  0   -1927299.914   3182711.530   5787178.416
10 0 59697  33102.000000  0   -1315139.555   2642895.825   6213616.515
10 0 59697  33222.000000  0    -689971.076   2046121.605   6530826.923
10 0 59697  33342.000000  0     -63615.811   1402691.499   6733267.709
10 0 59697  33462.000000  0     552279.693    723918.677   6817404.958
10 0 59697  33582.000000  0    1146459.674     21927.334   6781769.738
10 0 59697  33702.000000  0    1708263.600   -690562.843   6626982.553
10 0 59697  33822.000000  0    2227816.879  -1400466.714   6355743.754
10 0 59697  33942.000000  0    2696204.742  -2094573.009   5972790.026
10 0 59697  34062.000000  0    3105627.639  -2759790.877   5484817.240
10 0 59697  34182.000000  0    3449533.944  -3383398.369   4900368.938
10 0 59697  34302.000000  0    3722728.315  -3953289.077   4229692.798
10 0 59697  34422.000000  0    3921454.125  -4458212.022   3484565.257
10 0 59697  34542.000000  0    4043446.535  -4887999.567   2678086.509
10 0 59697  34662.000000  0    4087955.843  -5233778.011   1824449.352
10 0 59697  34782.000000  0    4055739.860  -5488155.205    938685.344
10 0 59697  34902.000000  0    3949024.737  -5645379.928     36393.505
10 0 59697  35022.000000  0    3771436.596  -5701469.707   -866541.307
10 0 59697  35142.000000  0    3527904.265  -5654304.497  -1754237.765
10 0 59697  35262.000000  0    3224535.128  -5503680.992  -2611105.461
10 0 59697  35382.000000  0    2868469.511  -5251329.135  -3422125.076
10 0 59697  35502.000000  0    2467715.268  -4900889.042  -4173115.579
10 0 59697  35622.000000  0    2030967.871  -4457850.184  -4850981.509
10 0 59697  35742.000000  0    1567421.868  -3929455.133  -5443936.253
10 0 59697  35862.000000  0    1086578.736  -3324571.604  -5941698.475
10 0 59697  35982.000000  0     598053.629  -2653536.616  -6335660.082
10 0 59697  36102.000000  0     111385.168  -1927975.209  -6619024.158
10 0 59697  36222.000000  0    -364147.217  -1160596.926  -6786911.366
10 0 59697  36342.000000  0    -819695.224   -364974.334  -6836435.124
10 0 59697  36462.000000  0   -1247001.784    444693.006  -6766745.241
10 0 59697  36582.000000  0   -1638547.324   1253825.408  -6579040.200
10 0 59697  36702.000000  0   -1987678.901   2047719.121  -6276548.661
10 0 59697  36822.000000  0   -2288721.486   2811806.900  -5864480.648
10 0 59697  36942.000000  0   -2537070.633   3531922.042  -5349947.799
10 0 59697  37062.000000  0   -2729263.948   4194560.360  -4741852.130
10 0 59697  37182.000000  0   -2863031.237   4787136.747  -4050743.147
10 0 59697  37302.000000  0   -2937320.456   5298229.545  -3288643.277
10 0 59697  37422.000000  0   -2952298.723   5717806.865  -2468846.415
10 0 59697  37542.000000  0   -2909329.725   6037433.452  -1605691.718
10 0 59697  37662.000000  0   -2810925.442   6250450.126   -714312.205
10 0 59697  37782.000000  0   -2660674.007   6352118.822    189632.954
10 0 59697  37902.000000  0   -2463146.883   6339734.966   1090239.040
10 0 59697  38022.000000  0   -2223783.013   6212697.538   1971647.514
10 0 59697  38142.000000  0   -1948754.207   5972533.375   2818335.154
10 0 59697  38262.000000  0   -1644817.372   5622879.185   3615394.712
10 0 59697  38382.000000  0   -1319157.224   5169422.179   4348802.581
10 0 59697  38502.000000  0    -979223.037   4619800.237   5005669.227
10 0 59697  38622.000000  0    -632561.454   3983463.420   5574465.939
10 0 59697  38742.000000  0    -286652.643   3271503.056   6045223.667
10 0 59697  38862.000000  0      51247.753   2496449.924   6409703.489
10 0 59697  38982.000000  0     374258.021   1672047.894   6661534.140
10 0 59697  39102.000000  0     676008.472    813006.456   6796317.947
10 0 59697  39222.000000  0     950765.262    -65263.335   6811701.768
10 0 59697  39342.000000  0    1193538.185   -946923.959   6707415.974
10 0 59697  39462.000000  0    1400170.982  -1815996.739   6485279.651
10 0 59697  39582.000000  0    1567412.764  -2656650.882   6149171.282
10 0 59697  39702.000000  0    1692969.375  -3453493.163   5704965.476
10 0 59697  39822.000000  0    1775533.464  -4191852.609   5160435.096
10 0 59697  39942.000000  0    1814793.554  -4858053.744   4525120.492
10 0 59697  40062.000000  0    1811422.593  -5439676.384   3810169.159
10 0 59697  40182.000000  0    1767044.991  -5925797.313   3028143.049
10 0 59697  40302.000000  0    1684181.405  -6307203.760   2192797.183
10 0 59697  40422.000000  0    1566174.814  -6576576.108   1318836.277
10 0 59697  40542.000000  0    1417098.538  -6728636.488    421651.611
10 0 59697  40662.000000  0    1241647.743  -6760257.808   -482957.075
10 0 59697  40782.000000  0    1045016.496  -6670530.528  -1379070.564
10 0 59697  40902.000000  0     832764.739  -6460780.248  -2250940.355
10 0 59697  41022.000000  0     610679.127  -6134540.825  -3083271.595
10 0 59697  41142.000000  0     384632.291  -5697485.366  -3861495.535
10 0 59697  41262.000000  0     160442.095  -5157315.537  -4572025.942
10 0 59697  41382.000000  0     -56265.254  -4523612.515  -5202492.902
10 0 59697  41502.000000  0    -260184.434  -3807655.675  -5741951.388
10 0 59697  41622.000000  0    -446450.015  -3022212.133  -6181062.095
10 0 59697  41742.000000  0    -610742.749  -2181302.704  -6512242.025
10 0 59697  41862.000000  0    -749381.645  -1299949.003  -6729783.918
10 0 59697  41982.000000  0    -859400.300   -393906.853  -6829944.847
10 0 59697  42102.000000  0    -938606.111    520611.494  -6811003.570
10 0 59697  42222.000000  0    -985621.842   1427220.344  -6673285.756
10 0 59697  42342.000000  0    -999909.182   2309646.609  -6419158.958
10 0 59697  42462.000000  0    -981773.741   3152014.693  -6052996.972
10 0 59697  42582.000000  0    -932351.548   3939128.750  -5581113.741
10 0 59697  42702.000000  0    -853576.970   4656746.098  -5011664.704
10 0 59697  42822.000000  0    -748132.728   5291838.359  -4354517.685
10 0 59697  42942.000000  0    -619382.868   5832835.430  -3621091.978
10 0 59697  43062.000000  0    -471289.222   6269845.768  -2824167.916
10 0 59697  43182.000000  0    -308312.970   6594849.007  -1977670.053
10 0 59697  43302.000000  0    -135303.642   6801855.933  -1096425.622
10 0 59697  43422.000000  0      42622.282   6887030.662   -195902.981
10 0 59697  43542.000000  0     220210.561   6848771.477    708065.069
10 0 59697  43662.000000  0     392202.619   6687747.447   1599567.935
10 0 59697  43782.000000  0     553468.884   6406887.958   2462906.923
10 0 59697  43902.000000  0     699138.259   6011326.094   3282879.289
10 0 59697  44022.000000  0     824721.545   5508299.797   4045052.345
10 0 59697  44142.000000  0     926227.707   4907013.573   4736022.572
10 0 59697  44262.000000  0    1000265.195   4218457.141   5343656.804
10 0 59697  44382.000000  0    1044129.705   3455192.906   5857299.881
10 0 59697  44502.000000  0    1055876.630   2631119.498   6267957.299
10 0 59697  44622.000000  0    1034374.318   1761211.927   6568447.506
10 0 59697  44742.000000  0     979338.972    861244.797   6753521.663
10 0 59697  44862.000000  0     891350.392    -52495.836   6819948.799
10 0 59697  44982.000000  0     771848.157   -963505.724   6766569.037
10 0 59697  45102.000000  0     623107.993  -1855360.458   6594313.765
10 0 59697  45222.000000  0     448198.611  -2712011.314   6306190.657
10 0 59697  45342.000000  0     250919.803  -3518075.793   5907234.226
10 0 59697  45462.000000  0      35723.329  -4259114.875   5404420.227
10 0 59697  45582.000000  0    -192381.651  -4921893.605   4806550.317
10 0 59697  45702.000000  0    -427937.678  -5494624.580   4124106.424
10 0 59697  45822.000000  0    -665162.023  -5967188.540   3369071.230
10 0 59697  45942.000000  0    -898080.237  -6331322.866   2554718.881
99
